{
  "type": "FeatureCollection",
  "features": [
    {
      "type": "Feature",
      "properties": {
        "norad_id": 37960,
        "name": "COSMOS 2251 DEB",
        "group": "cosmos-2251-debris",
        "lat": -48.29354352581948,
        "lon": 174.38560340464534,
        "alt_km": 889.1738824202957,
        "timestamp": "2025-12-09T04:51:47.889377+00:00",
        "meta_object_name": "COSMOS 2251 DEB",
        "meta_object_id": "1993-036BPK",
        "meta_epoch": "2025-12-08T13:45:42.939360",
        "meta_mean_motion": 14.07839084,
        "meta_eccentricity": 0.024919,
        "meta_inclination": 74.0588,
        "meta_ra_of_asc_node": 194.1944,
        "meta_arg_of_pericenter": 213.9073,
        "meta_mean_anomaly": 144.5924,
        "meta_ephemeris_type": 0,
        "meta_classification_type": "U",
        "meta_norad_cat_id": 37960,
        "meta_element_set_no": 999,
        "meta_rev_at_epoch": 77347,
        "meta_bstar": 0.0013227,
        "meta_mean_motion_dot": 2.955e-05,
        "meta_mean_motion_ddot": 0,
        "tle_line1": "1 37960U 93036BPK 25342.57341365  .00002955  00000+0  13227-2 0  9993",
        "tle_line2": "2 37960  74.0588 194.1944 0249190 213.9073 144.5924 14.07839084773472"
      },
      "geometry": {
        "type": "Point",
        "coordinates": [
          174.38560340464534,
          -48.29354352581948
        ]
      }
    },
    {
      "type": "Feature",
      "properties": {
        "norad_id": 37961,
        "name": "COSMOS 2251 DEB",
        "group": "cosmos-2251-debris",
        "lat": -50.78946324887792,
        "lon": -15.629360138501626,
        "alt_km": 677.8263334883795,
        "timestamp": "2025-12-09T04:51:47.889387+00:00",
        "meta_object_name": "COSMOS 2251 DEB",
        "meta_object_id": "1993-036BPL",
        "meta_epoch": "2025-12-01T04:44:47.787648",
        "meta_mean_motion": 14.57792656,
        "meta_eccentricity": 0.0041244,
        "meta_inclination": 74.04,
        "meta_ra_of_asc_node": 159.049,
        "meta_arg_of_pericenter": 241.5465,
        "meta_mean_anomaly": 118.1542,
        "meta_ephemeris_type": 0,
        "meta_classification_type": "U",
        "meta_norad_cat_id": 37961,
        "meta_element_set_no": 999,
        "meta_rev_at_epoch": 79897,
        "meta_bstar": 0.001072,
        "meta_mean_motion_dot": 4.934e-05,
        "meta_mean_motion_ddot": 0,
        "tle_line1": "1 37961U 93036BPL 25335.19777532  .00004934  00000+0  10720-2 0  9997",
        "tle_line2": "2 37961  74.0400 159.0490 0041244 241.5465 118.1542 14.57792656798977"
      },
      "geometry": {
        "type": "Point",
        "coordinates": [
          -15.629360138501626,
          -50.78946324887792
        ]
      }
    },
    {
      "type": "Feature",
      "properties": {
        "norad_id": 37966,
        "name": "COSMOS 2251 DEB",
        "group": "cosmos-2251-debris",
        "lat": 5.358588620480684,
        "lon": -120.55259273845665,
        "alt_km": 532.7003983888717,
        "timestamp": "2025-12-09T04:51:47.889397+00:00",
        "meta_object_name": "COSMOS 2251 DEB",
        "meta_object_id": "1993-036BPR",
        "meta_epoch": "2025-12-04T00:57:24.425856",
        "meta_mean_motion": 15.1122342,
        "meta_eccentricity": 0.0008631,
        "meta_inclination": 73.977,
        "meta_ra_of_asc_node": 248.6217,
        "meta_arg_of_pericenter": 122.4784,
        "meta_mean_anomaly": 237.7244,
        "meta_ephemeris_type": 0,
        "meta_classification_type": "U",
        "meta_norad_cat_id": 37966,
        "meta_element_set_no": 999,
        "meta_rev_at_epoch": 85211,
        "meta_bstar": 0.0061628837,
        "meta_mean_motion_dot": 0.00105178,
        "meta_mean_motion_ddot": 0,
        "tle_line1": "1 37966U 93036BPR 25338.03986604  .00105178  00000+0  61629-2 0  9996",
        "tle_line2": "2 37966  73.9770 248.6217 0008631 122.4784 237.7244 15.11223420852119"
      },
      "geometry": {
        "type": "Point",
        "coordinates": [
          -120.55259273845665,
          5.358588620480684
        ]
      }
    },
    {
      "type": "Feature",
      "properties": {
        "norad_id": 37967,
        "name": "COSMOS 2251 DEB",
        "group": "cosmos-2251-debris",
        "lat": -42.63032177465626,
        "lon": -20.764016587697423,
        "alt_km": 706.2720084694429,
        "timestamp": "2025-12-09T04:51:47.889408+00:00",
        "meta_object_name": "COSMOS 2251 DEB",
        "meta_object_id": "1993-036BPS",
        "meta_epoch": "2025-12-08T04:28:24.535776",
        "meta_mean_motion": 14.40441797,
        "meta_eccentricity": 0.01507915,
        "meta_inclination": 74.0147,
        "meta_ra_of_asc_node": 145.8177,
        "meta_arg_of_pericenter": 285.5804,
        "meta_mean_anomaly": 72.875,
        "meta_ephemeris_type": 0,
        "meta_classification_type": "U",
        "meta_norad_cat_id": 37967,
        "meta_element_set_no": 999,
        "meta_rev_at_epoch": 64670,
        "meta_bstar": 0.0018858516,
        "meta_mean_motion_dot": 6.833e-05,
        "meta_mean_motion_ddot": 0,
        "tle_line1": "1 37967U 93036BPS 25342.18639509  .00006833  00000+0  18859-2 0  9992",
        "tle_line2": "2 37967  74.0147 145.8177 0150791 285.5804  72.8750 14.40441797646708"
      },
      "geometry": {
        "type": "Point",
        "coordinates": [
          -20.764016587697423,
          -42.63032177465626
        ]
      }
    },
    {
      "type": "Feature",
      "properties": {
        "norad_id": 37968,
        "name": "COSMOS 2251 DEB",
        "group": "cosmos-2251-debris",
        "lat": -26.241651591712277,
        "lon": -89.76136664110592,
        "alt_km": 544.4549620354564,
        "timestamp": "2025-12-09T04:51:47.889418+00:00",
        "meta_object_name": "COSMOS 2251 DEB",
        "meta_object_id": "1993-036BPT",
        "meta_epoch": "2025-12-08T12:58:54.814944",
        "meta_mean_motion": 15.00440305,
        "meta_eccentricity": 0.0080589,
        "meta_inclination": 74.0015,
        "meta_ra_of_asc_node": 279.7179,
        "meta_arg_of_pericenter": 36.5177,
        "meta_mean_anomaly": 324.1466,
        "meta_ephemeris_type": 0,
        "meta_classification_type": "U",
        "meta_norad_cat_id": 37968,
        "meta_element_set_no": 999,
        "meta_rev_at_epoch": 60156,
        "meta_bstar": 0.0013442,
        "meta_mean_motion_dot": 0.00018125,
        "meta_mean_motion_ddot": 0,
        "tle_line1": "1 37968U 93036BPT 25342.54091221  .00018125  00000+0  13442-2 0  9996",
        "tle_line2": "2 37968  74.0015 279.7179 0080589  36.5177 324.1466 15.00440305601569"
      },
      "geometry": {
        "type": "Point",
        "coordinates": [
          -89.76136664110592,
          -26.241651591712277
        ]
      }
    },
    {
      "type": "Feature",
      "properties": {
        "norad_id": 37971,
        "name": "COSMOS 2251 DEB",
        "group": "cosmos-2251-debris",
        "lat": -11.792493743437701,
        "lon": -128.17760986122536,
        "alt_km": 686.3330097594517,
        "timestamp": "2025-12-09T04:51:47.889428+00:00",
        "meta_object_name": "COSMOS 2251 DEB",
        "meta_object_id": "1993-036BPW",
        "meta_epoch": "2025-12-08T11:24:13.177728",
        "meta_mean_motion": 14.48533173,
        "meta_eccentricity": 0.00678252,
        "meta_inclination": 73.993,
        "meta_ra_of_asc_node": 49.7525,
        "meta_arg_of_pericenter": 189.4102,
        "meta_mean_anomaly": 170.5792,
        "meta_ephemeris_type": 0,
        "meta_classification_type": "U",
        "meta_norad_cat_id": 37971,
        "meta_element_set_no": 999,
        "meta_rev_at_epoch": 60616,
        "meta_bstar": 0.0028347119,
        "meta_mean_motion_dot": 0.00010949,
        "meta_mean_motion_ddot": 0,
        "tle_line1": "1 37971U 93036BPW 25342.47515252  .00010949  00000+0  28347-2 0  9993",
        "tle_line2": "2 37971  73.9930  49.7525 0067825 189.4102 170.5792 14.48533173606164"
      },
      "geometry": {
        "type": "Point",
        "coordinates": [
          -128.17760986122536,
          -11.792493743437701
        ]
      }
    },
    {
      "type": "Feature",
      "properties": {
        "norad_id": 37975,
        "name": "COSMOS 2251 DEB",
        "group": "cosmos-2251-debris",
        "lat": 73.68451435108267,
        "lon": 72.46638867502769,
        "alt_km": 680.5203061048514,
        "timestamp": "2025-12-09T04:51:47.889449+00:00",
        "meta_object_name": "COSMOS 2251 DEB",
        "meta_object_id": "1993-036BQA",
        "meta_epoch": "2025-12-08T05:39:54.402048",
        "meta_mean_motion": 14.7566979,
        "meta_eccentricity": 0.00966582,
        "meta_inclination": 74.0031,
        "meta_ra_of_asc_node": 332.9016,
        "meta_arg_of_pericenter": 323.2275,
        "meta_mean_anomaly": 36.2292,
        "meta_ephemeris_type": 0,
        "meta_classification_type": "U",
        "meta_norad_cat_id": 37975,
        "meta_element_set_no": 999,
        "meta_rev_at_epoch": 69679,
        "meta_bstar": 0.0047432539,
        "meta_mean_motion_dot": 0.00035118,
        "meta_mean_motion_ddot": 0,
        "tle_line1": "1 37975U 93036BQA 25342.23604632  .00035118  00000+0  47433-2 0  9994",
        "tle_line2": "2 37975  74.0031 332.9016 0096658 323.2275  36.2292 14.75669790696795"
      },
      "geometry": {
        "type": "Point",
        "coordinates": [
          72.46638867502769,
          73.68451435108267
        ]
      }
    }
  ]
}